{
    "links": {
        "self": "http://www.neowsapp.com/rest/v1/neo/3825586?api_key=iIulBulltgU6a56xZRHN4H3l9WmuAYTsLGpBGhQ2"
    },
    "id": "3825586",
    "neo_reference_id": "3825586",
    "name": "(2018 NT1)",
    "designation": "2018 NT1",
    "nasa_jpl_url": "http://ssd.jpl.nasa.gov/sbdb.cgi?sstr=3825586",
    "absolute_magnitude_h": 21.9,
    "estimated_diameter": {
        "kilometers": {
            "estimated_diameter_min": 0.1108038821,
            "estimated_diameter_max": 0.2477650126
        },
        "meters": {
            "estimated_diameter_min": 110.8038821264,
            "estimated_diameter_max": 247.7650126055
        },
        "miles": {
            "estimated_diameter_min": 0.068850319,
            "estimated_diameter_max": 0.1539539936
        },
        "feet": {
            "estimated_diameter_min": 363.5298086356,
            "estimated_diameter_max": 812.8773639568
        }
    },
    "is_potentially_hazardous_asteroid": false,
    "close_approach_data": [
        {
            "close_approach_date": "2018-07-23",
            "close_approach_date_full": "2018-Jul-23 19:05",
            "epoch_date_close_approach": 1532372700000,
            "relative_velocity": {
                "kilometers_per_second": "10.6960449485",
                "kilometers_per_hour": "38505.7618146616",
                "miles_per_hour": "23925.9829453379"
            },
            "miss_distance": {
                "astronomical": "0.192929544",
                "lunar": "75.049592616",
                "kilometers": "28861848.84247128",
                "miles": "17933921.263732464"
            },
            "orbiting_body": "Earth"
        },
        {
            "close_approach_date": "2018-09-12",
            "close_approach_date_full": "2018-Sep-12 20:43",
            "epoch_date_close_approach": 1536784980000,
            "relative_velocity": {
                "kilometers_per_second": "10.3846547921",
                "kilometers_per_hour": "37384.7572514156",
                "miles_per_hour": "23229.4343043588"
            },
            "miss_distance": {
                "astronomical": "0.0865727805",
                "lunar": "33.6768116145",
                "kilometers": "12951103.562777535",
                "miles": "8047442.589038583"
            },
            "orbiting_body": "Mars"
        },
        {
            "close_approach_date": "2037-05-27",
            "close_approach_date_full": "2037-May-27 07:06",
            "epoch_date_close_approach": 2127020760000,
            "relative_velocity": {
                "kilometers_per_second": "13.9021627306",
                "kilometers_per_hour": "50047.7858300495",
                "miles_per_hour": "31097.7478120105"
            },
            "miss_distance": {
                "astronomical": "0.3988180556",
                "lunar": "155.1402236284",
                "kilometers": "59662331.635301572",
                "miles": "37072453.8056508136"
            },
            "orbiting_body": "Earth"
        }
    ],
    "orbital_data": {
        "orbit_id": "5",
        "orbit_determination_date": "2018-09-04 06:54:24",
        "first_observation_date": "2018-07-07",
        "last_observation_date": "2018-09-03",
        "data_arc_in_days": 58,
        "observations_used": 34,
        "orbit_uncertainty": "6",
        "minimum_orbit_intersection": ".120218",
        "jupiter_tisserand_invariant": "3.528",
        "epoch_osculation": "2459000.5",
        "eccentricity": ".485970977298312",
        "semi_major_axis": "2.149497667926552",
        "inclination": "9.686113470360375",
        "ascending_node_longitude": "130.1187838122314",
        "orbital_period": "1151.075722571183",
        "perihelion_distance": "1.104904185543843",
        "perihelion_argument": "143.6648057142232",
        "aphelion_distance": "3.19409115030926",
        "perihelion_time": "2459456.351498984693",
        "mean_anomaly": "217.4320208335892",
        "mean_motion": ".3127509276243444",
        "equinox": "J2000",
        "orbit_class": {
            "orbit_class_type": "AMO",
            "orbit_class_description": "Near-Earth asteroid orbits similar to that of 1221 Amor",
            "orbit_class_range": "1.017 AU < q (perihelion) < 1.3 AU"
        }
    },
    "is_sentry_object": false
}